{"type": "FeatureCollection", "features": [ {"type": "Feature", "properties": {"norad_id": 60453, "name": "LEGION 4", "group": "resource", "lat": -29.96470511991436, "lon": 62.79009055807067, "alt_km": 518.3986953075109, "timestamp": "2025-12-02T06:27:52.679043+00:00", "meta": {"OBJECT_NAME": "LEGION 4", "OBJECT_ID": "2024-146B", "EPOCH": "2025-12-01T18:00:26.100576", "MEAN_MOTION": 15.1563102, "ECCENTRICITY": 0.0009836, "INCLINATION": 45.0372, "RA_OF_ASC_NODE": 100.7541, "ARG_OF_PERICENTER": 254.0592, "MEAN_ANOMALY": 105.9203, "EPHEMERIS_TYPE": 0, "CLASSIFICATION_TYPE": "U", "NORAD_CAT_ID": 60453, "ELEMENT_SET_NO": 999, "REV_AT_EPOCH": 7091, "BSTAR": 0.00037776, "MEAN_MOTION_DOT": 7.052e-05, "MEAN_MOTION_DDOT": 0}, "tle": {"line1": "1 60453U 24146B   25335.75030209  .00007052  00000+0  37776-3 0  9995", "line2": "2 60453  45.0372 100.7541 0009836 254.0592 105.9203 15.15631020 70913"}}, "geometry": {"type": "Point", "coordinates": [62.79009055807067, -29.96470511991436]}}, {"type": "Feature", "properties": {"norad_id": 60989, "name": "SENTINEL-2C", "group": "resource", "lat": 75.2382135104274, "lon": -96.22536208156359, "alt_km": 780.9869984232455, "timestamp": "2025-12-02T06:27:52.679055+00:00", "meta": {"OBJECT_NAME": "SENTINEL-2C", "OBJECT_ID": "2024-157A", "EPOCH": "2025-12-01T19:55:10.634880", "MEAN_MOTION": 14.30822875, "ECCENTRICITY": 0.0001151, "INCLINATION": 98.5616, "RA_OF_ASC_NODE": 48.4717, "ARG_OF_PERICENTER": 102.4214, "MEAN_ANOMALY": 257.7098, "EPHEMERIS_TYPE": 0, "CLASSIFICATION_TYPE": "U", "NORAD_CAT_ID": 60989, "ELEMENT_SET_NO": 999, "REV_AT_EPOCH": 6476, "BSTAR": 7.7528e-05, "MEAN_MOTION_DOT": 1.6e-06, "MEAN_MOTION_DDOT": 0}, "tle": {"line1": "1 60989U 24157A   25335.82998420  .00000160  00000+0  77528-4 0  9990", "line2": "2 60989  98.5616  48.4717 0001151 102.4214 257.7098 14.30822875 64763"}}, "geometry": {"type": "Point", "coordinates": [-96.22536208156359, 75.2382135104274]}}, {"type": "Feature", "properties": {"norad_id": 61735, "name": "IONOSFERA-M 1", "group": "resource", "lat": -46.03915804395568, "lon": -144.62289590703418, "alt_km": 822.7937053661808, "timestamp": "2025-12-02T06:27:52.679066+00:00", "meta": {"OBJECT_NAME": "IONOSFERA-M 1", "OBJECT_ID": "2024-199A", "EPOCH": "2025-12-01T20:33:23.975136", "MEAN_MOTION": 14.2270998, "ECCENTRICITY": 0.0001434, "INCLINATION": 98.741, "RA_OF_ASC_NODE": 205.7876, "ARG_OF_PERICENTER": 37.353, "MEAN_ANOMALY": 322.7747, "EPHEMERIS_TYPE": 0, "CLASSIFICATION_TYPE": "U", "NORAD_CAT_ID": 61735, "ELEMENT_SET_NO": 999, "REV_AT_EPOCH": 9964, "BSTAR": 5.6241e-05, "MEAN_MOTION_DOT": 8.2e-07, "MEAN_MOTION_DDOT": 0}, "tle": {"line1": "1 61735U 24199A   25335.85652749  .00000082  00000+0  56241-4 0  9992", "line2": "2 61735  98.7410 205.7876 0001434  37.3530 322.7747 14.22709980 99643"}}, "geometry": {"type": "Point", "coordinates": [-144.62289590703418, -46.03915804395568]}}, {"type": "Feature", "properties": {"norad_id": 61736, "name": "IONOSFERA-M 2", "group": "resource", "lat": 43.33488409550694, "lon": 34.45605743985627, "alt_km": 811.6090396085801, "timestamp": "2025-12-02T06:27:52.679076+00:00", "meta": {"OBJECT_NAME": "IONOSFERA-M 2", "OBJECT_ID": "2024-199B", "EPOCH": "2025-12-01T21:23:18.644928", "MEAN_MOTION": 14.22712098, "ECCENTRICITY": 0.0001329, "INCLINATION": 98.7408, "RA_OF_ASC_NODE": 205.7346, "ARG_OF_PERICENTER": 123.5859, "MEAN_ANOMALY": 236.5446, "EPHEMERIS_TYPE": 0, "CLASSIFICATION_TYPE": "U", "NORAD_CAT_ID": 61736, "ELEMENT_SET_NO": 999, "REV_AT_EPOCH": 10277, "BSTAR": 5.5708e-05, "MEAN_MOTION_DOT": 8.1e-07, "MEAN_MOTION_DDOT": 0}, "tle": {"line1": "1 61736U 24199B   25335.89118802  .00000081  00000+0  55708-4 0  9990", "line2": "2 61736  98.7408 205.7346 0001329 123.5859 236.5446 14.22712098102779"}}, "geometry": {"type": "Point", "coordinates": [34.45605743985627, 43.33488409550694]}}, {"type": "Feature", "properties": {"norad_id": 63772, "name": "BIOMASS", "group": "resource", "lat": 78.37532135368264, "lon": 117.82004025348108, "alt_km": 660.7537473552793, "timestamp": "2025-12-02T06:27:52.679086+00:00", "meta": {"OBJECT_NAME": "BIOMASS", "OBJECT_ID": "2025-090A", "EPOCH": "2025-12-01T18:38:22.623072", "MEAN_MOTION": 14.67539337, "ECCENTRICITY": 0.0001211, "INCLINATION": 98.0708, "RA_OF_ASC_NODE": 160.9452, "ARG_OF_PERICENTER": 83.2516, "MEAN_ANOMALY": 276.8827, "EPHEMERIS_TYPE": 0, "CLASSIFICATION_TYPE": "U", "NORAD_CAT_ID": 63772, "ELEMENT_SET_NO": 999, "REV_AT_EPOCH": 3173, "BSTAR": 0.00027874, "MEAN_MOTION_DOT": 1.533e-05, "MEAN_MOTION_DDOT": 0}, "tle": {"line1": "1 63772U 25090A   25335.77665073  .00001533  00000+0  27874-3 0  9992", "line2": "2 63772  98.0708 160.9452 0001211  83.2516 276.8827 14.67539337 31738"}}, "geometry": {"type": "Point", "coordinates": [117.82004025348108, 78.37532135368264]}}, {"type": "Feature", "properties": {"norad_id": 64694, "name": "GOSAT-GW (IBUKI GW)", "group": "resource", "lat": -68.35474138945806, "lon": -67.16200649265097, "alt_km": 676.9338924154363, "timestamp": "2025-12-02T06:27:52.679096+00:00", "meta": {"OBJECT_NAME": "GOSAT-GW (IBUKI GW)", "OBJECT_ID": "2025-141A", "EPOCH": "2025-11-30T05:41:32.267328", "MEAN_MOTION": 14.67567435, "ECCENTRICITY": 0.00014369, "INCLINATION": 98.0401, "RA_OF_ASC_NODE": 269.9775, "ARG_OF_PERICENTER": 82.921, "MEAN_ANOMALY": 277.2158, "EPHEMERIS_TYPE": 0, "CLASSIFICATION_TYPE": "U", "NORAD_CAT_ID": 64694, "ELEMENT_SET_NO": 999, "REV_AT_EPOCH": 2266, "BSTAR": 0.00019762357, "MEAN_MOTION_DOT": 1.074e-05, "MEAN_MOTION_DDOT": 0}, "tle": {"line1": "1 64694U 25141A   25334.23717902  .00001074  00000+0  19762-3 0  9999", "line2": "2 64694  98.0401 269.9775 0001436  82.9210 277.2158 14.67567435 22660"}}, "geometry": {"type": "Point", "coordinates": [-67.16200649265097, -68.35474138945806]}}, {"type": "Feature", "properties": {"norad_id": 64876, "name": "IONOSFERA-M 3", "group": "resource", "lat": -47.73205144484618, "lon": 108.87482036674236, "alt_km": 828.8240372426999, "timestamp": "2025-12-02T06:27:52.679106+00:00", "meta": {"OBJECT_NAME": "IONOSFERA-M 3", "OBJECT_ID": "2025-155A", "EPOCH": "2025-12-01T20:56:48.319008", "MEAN_MOTION": 14.2143657, "ECCENTRICITY": 0.0002406, "INCLINATION": 98.5767, "RA_OF_ASC_NODE": 298.0473, "ARG_OF_PERICENTER": 76.804, "MEAN_ANOMALY": 283.3406, "EPHEMERIS_TYPE": 0, "CLASSIFICATION_TYPE": "U", "NORAD_CAT_ID": 64876, "ELEMENT_SET_NO": 999, "REV_AT_EPOCH": 1837, "BSTAR": 6.1594e-05, "MEAN_MOTION_DOT": 9.2e-07, "MEAN_MOTION_DDOT": 0}, "tle": {"line1": "1 64876U 25155A   25335.87278147  .00000092  00000+0  61594-4 0  9990", "line2": "2 64876  98.5767 298.0473 0002406  76.8040 283.3406 14.21436570 18373"}}, "geometry": {"type": "Point", "coordinates": [108.87482036674236, -47.73205144484618]}}, {"type": "Feature", "properties": {"norad_id": 64877, "name": "IONOSFERA-M 4", "group": "resource", "lat": 48.16009539352483, "lon": -71.35137723169278, "alt_km": 814.9947934373595, "timestamp": "2025-12-02T06:27:52.679116+00:00", "meta": {"OBJECT_NAME": "IONOSFERA-M 4", "OBJECT_ID": "2025-155B", "EPOCH": "2025-12-01T21:47:18.716928", "MEAN_MOTION": 14.21437592, "ECCENTRICITY": 0.0001759, "INCLINATION": 98.5766, "RA_OF_ASC_NODE": 298.0011, "ARG_OF_PERICENTER": 74.555, "MEAN_ANOMALY": 285.5822, "EPHEMERIS_TYPE": 0, "CLASSIFICATION_TYPE": "U", "NORAD_CAT_ID": 64877, "ELEMENT_SET_NO": 999, "REV_AT_EPOCH": 1837, "BSTAR": 6.4782e-05, "MEAN_MOTION_DOT": 9.9e-07, "MEAN_MOTION_DDOT": 0}, "tle": {"line1": "1 64877U 25155B   25335.90785552  .00000099  00000+0  64782-4 0  9997", "line2": "2 64877  98.5766 298.0011 0001759  74.5550 285.5822 14.21437592 18373"}}, "geometry": {"type": "Point", "coordinates": [-71.35137723169278, 48.16009539352483]}}, {"type": "Feature", "properties": {"norad_id": 64899, "name": "MICROCARB", "group": "resource", "lat": 77.92843653880466, "lon": -87.07745740155336, "alt_km": 644.9295078411778, "timestamp": "2025-12-02T06:27:52.679127+00:00", "meta": {"OBJECT_NAME": "MICROCARB", "OBJECT_ID": "2025-156A", "EPOCH": "2025-12-01T18:35:44.920608", "MEAN_MOTION": 14.72026724, "ECCENTRICITY": 0.0016424, "INCLINATION": 98.0037, "RA_OF_ASC_NODE": 51.2958, "ARG_OF_PERICENTER": 178.8531, "MEAN_ANOMALY": 181.2717, "EPHEMERIS_TYPE": 0, "CLASSIFICATION_TYPE": "U", "NORAD_CAT_ID": 64899, "ELEMENT_SET_NO": 999, "REV_AT_EPOCH": 1892, "BSTAR": 0.00014153, "MEAN_MOTION_DOT": 8.41e-06, "MEAN_MOTION_DDOT": 0}, "tle": {"line1": "1 64899U 25156A   25335.77482547  .00000841  00000+0  14153-3 0  9996", "line2": "2 64899  98.0037  51.2958 0016424 178.8531 181.2717 14.72026724 18927"}}, "geometry": {"type": "Point", "coordinates": [-87.07745740155336, 77.92843653880466]}}, {"type": "Feature", "properties": {"norad_id": 64900, "name": "CO3D 3", "group": "resource", "lat": 41.06328420178534, "lon": 45.03636937614082, "alt_km": 558.2430262133248, "timestamp": "2025-12-02T06:27:52.679137+00:00", "meta": {"OBJECT_NAME": "CO3D 3", "OBJECT_ID": "2025-156B", "EPOCH": "2025-11-29T13:08:11.122944", "MEAN_MOTION": 15.11495615, "ECCENTRICITY": 0.01368669, "INCLINATION": 97.6723, "RA_OF_ASC_NODE": 49.0485, "ARG_OF_PERICENTER": 160.1625, "MEAN_ANOMALY": 200.5002, "EPHEMERIS_TYPE": 0, "CLASSIFICATION_TYPE": "U", "NORAD_CAT_ID": 64900, "ELEMENT_SET_NO": 999, "REV_AT_EPOCH": 1920, "BSTAR": 0.00046350794, "MEAN_MOTION_DOT": 9.779e-05, "MEAN_MOTION_DDOT": 0}, "tle": {"line1": "1 64900U 25156B   25333.54735096  .00009779  00000+0  46351-3 0  9996", "line2": "2 64900  97.6723  49.0485 0136866 160.1625 200.5002 15.11495615 19205"}}, "geometry": {"type": "Point", "coordinates": [45.03636937614082, 41.06328420178534]}}]}